[{"OBJECT_ID":"2008-045B","OBJECT_NAME":"BLOCK DM-SL R/B","NORAD_CAT_ID":"33377","OBJECT_TYPE":"ROCKET BODY","PERIOD":"676.519","INCLINATION":"0.6647","APOGEE":"35528.020","PERIGEE":"2771.337","ECCENTRICITY":"0.6415881","MEAN_MOTION":"2.12854249","TLE_LINE1":"1 33377U 08045B   16239.33777869 -.00000103  00000-0  00000+0 0  9995","TLE_LINE2":"2 33377   0.6647 259.3018 6415881 128.6802 357.3170  2.12854249 61602","LAUNCH_DATE":"2008-09-24","LAUNCH_SITE":"SEA LAUNCH","OWNER":"SEA LAUNCH DEMO","ORBIT_TYPE":"Highly Elliptical Orbit","OPERATIONAL_STATUS":"N/A, derelict rocket body","satInfo":{"lng":-4.105801685051873,"lat":0.6678819211721101,"elevation":-9.2341157756472,"azimuth":319.1058016850519,"range":36968.252179783405,"height":30113.515899142763,"velocity":2.4963932934637665},"x":-17,"y":-218,"dx":2.4899863951712398,"dy":-0.17873787375093989,"maxAlt":254,"minAlt":19},{"OBJECT_ID":"2009-008A","OBJECT_NAME":"NSS 9","NORAD_CAT_ID":"33749","OBJECT_TYPE":"PAYLOAD","PERIOD":"1436.088","INCLINATION":"0.0513","APOGEE":"35795.516","PERIGEE":"35777.343","ECCENTRICITY":"0.0002155","MEAN_MOTION":"1.00272381","TLE_LINE1":"1 33749U 09008A   16238.71656884  .00000045  00000-0  00000+0 0  9996","TLE_LINE2":"2 33749   0.0513 299.2505 0002155 220.6118 255.5548  1.00272381 27649","LAUNCH_DATE":"2009-02-12","LAUNCH_SITE":"FRENCH GUIANA","OWNER":"SOCIÉTÉ EUROPÉENNE DES SATELLITES","ORBIT_TYPE":"Geosynchronous","OPERATIONAL_STATUS":"Operational","satInfo":{"lng":-65.78957615092766,"lat":1.1344583205963519,"elevation":-7.458514845964087,"azimuth":20.789576150927633,"range":42544.326669576665,"height":35814.48876068526,"velocity":3.0735641057745333},"x":-237,"y":-107,"dx":1.2604347368712967,"dy":-2.803230384109339,"maxAlt":256,"minAlt":256},{"OBJECT_ID":"2009-008D","OBJECT_NAME":"SPIRALE B","NORAD_CAT_ID":"33752","OBJECT_TYPE":"PAYLOAD","PERIOD":"540.105","INCLINATION":"1.6849","APOGEE":"30922.141","PERIGEE":"259.825","ECCENTRICITY":"0.6978504","MEAN_MOTION":"2.6661453","TLE_LINE1":"1 33752U 09008D   16237.79622155  .00003248  00000-0  87853-3 0  9994","TLE_LINE2":"2 33752   1.6849 143.6620 6978504 101.6200 337.6349  2.66614530 66898","LAUNCH_DATE":"2009-02-12","LAUNCH_SITE":"FRENCH GUIANA","OWNER":"FRANCE","ORBIT_TYPE":"Highly Elliptical Orbit","OPERATIONAL_STATUS":"Operational","satInfo":{"lng":155.97077817191337,"lat":0.6182413165805574,"elevation":-10.721712071856999,"azimuth":159.02922182808663,"range":32330.856181578078,"height":25390.145909572268,"velocity":2.569228459256015},"x":73,"y":166,"dx":-2.346573715804136,"dy":1.0461962875809712,"maxAlt":221,"minAlt":0},{"OBJECT_ID":"2009-020B","OBJECT_NAME":"BLOCK DM-SL R/B","NORAD_CAT_ID":"34811","OBJECT_TYPE":"ROCKET BODY","PERIOD":"793.443","INCLINATION":"1.7499","APOGEE":"35473.278","PERIGEE":"8551.152","ECCENTRICITY":"0.4741422","MEAN_MOTION":"1.81487462","TLE_LINE1":"1 34811U 09020B   16239.50600978 -.00000141  00000-0  00000+0 0  9990","TLE_LINE2":"2 34811   1.7499 306.7989 4741422 252.9097  51.8898  1.81487462 48731","LAUNCH_DATE":"2009-04-20","LAUNCH_SITE":"SEA LAUNCH","OWNER":"SEA LAUNCH DEMO","ORBIT_TYPE":"Highly Elliptical Orbit","OPERATIONAL_STATUS":"N/A, derelict rocket body","satInfo":{"lng":58.53671841761993,"lat":-0.12068757144570931,"elevation":-13.670529596896632,"azimuth":256.4632815823801,"range":27132.985380391085,"height":19986.251289035634,"velocity":4.024684057478851},"x":121,"y":-77,"dx":2.100692041274251,"dy":3.4329542248989346,"maxAlt":254,"minAlt":60},{"OBJECT_ID":"2009-034A","OBJECT_NAME":"SIRIUS FM-5","NORAD_CAT_ID":"35493","OBJECT_TYPE":"PAYLOAD","PERIOD":"1436.109","INCLINATION":"0.0157","APOGEE":"35788.217","PERIGEE":"35785.484","ECCENTRICITY":"3.24e-05","MEAN_MOTION":"1.00270879","TLE_LINE1":"1 35493U 09034A   16239.28970964 -.00000229  00000-0  00000+0 0  9999","TLE_LINE2":"2 35493   0.0157 101.3910 0000324 295.7342 315.9766  1.00270879 26059","LAUNCH_DATE":"2009-06-30","LAUNCH_SITE":"TYURATAM MISSILE AND SPACE COMPLEX","OWNER":"UNITED STATES OF AMERICA","ORBIT_TYPE":"Geosynchronous","OPERATIONAL_STATUS":"Operational","satInfo":{"lng":-101.8823570986003,"lat":-1.8240816204878698,"elevation":-10.349943759874918,"azimuth":56.8823570986003,"range":42848.52126903121,"height":35794.536174475084,"velocity":3.0744464729507257},"x":-254,"y":52,"dx":-0.6330373418782707,"dy":-3.0085685697399107,"maxAlt":256,"minAlt":256},{"OBJECT_ID":"2009-042A","OBJECT_NAME":"ASIASAT 5","NORAD_CAT_ID":"35696","OBJECT_TYPE":"PAYLOAD","PERIOD":"1436.125","INCLINATION":"0.0076","APOGEE":"35794.457","PERIGEE":"35779.859","ECCENTRICITY":"0.0001731","MEAN_MOTION":"1.00269783","TLE_LINE1":"1 35696U 09042A   16238.97690623 -.00000335 +00000-0 +00000-0 0  9998","TLE_LINE2":"2 35696 000.0076 184.0672 0001731 293.6575 309.1007 01.00269783025756","LAUNCH_DATE":"2009-08-11","LAUNCH_SITE":"TYURATAM MISSILE AND SPACE COMPLEX","OWNER":"ASIASAT CORP","ORBIT_TYPE":"Geosynchronous","OPERATIONAL_STATUS":"Operational","satInfo":{"lng":50.48056026486101,"lat":0.01671226915708652,"elevation":-8.557712509212408,"azimuth":264.519439735139,"range":42638.43977356058,"height":35785.58852338849,"velocity":3.0749018057528374},"x":197,"y":-165,"dx":1.9566829724780443,"dy":2.3720060835159225,"maxAlt":256,"minAlt":256},{"OBJECT_ID":"2009-044A","OBJECT_NAME":"JCSAT 12","NORAD_CAT_ID":"35755","OBJECT_TYPE":"PAYLOAD","PERIOD":"1436.031","INCLINATION":"0.0245","APOGEE":"35810.029","PERIGEE":"35760.605","ECCENTRICITY":"0.0005861","MEAN_MOTION":"1.00276349","TLE_LINE1":"1 35755U 09044A   16238.90252565  .00000000  00000-0  10000-3 0  9990","TLE_LINE2":"2 35755   0.0245  28.0313 0005861 291.9314 107.4948  1.00276349 25747","LAUNCH_DATE":"2009-08-21","LAUNCH_SITE":"FRENCH GUIANA","OWNER":"JAPAN","ORBIT_TYPE":"Geosynchronous","OPERATIONAL_STATUS":"Backup/Standby","satInfo":{"lng":112.7943005238879,"lat":-0.8330207962176962,"elevation":-9.382810392091196,"azimuth":202.20569947611204,"range":42751.60383382978,"height":35805.95202070158,"velocity":3.0739509792715336},"x":236,"y":98,"dx":-1.1909220231417283,"dy":2.833880618120748,"maxAlt":257,"minAlt":256},{"OBJECT_ID":"2009-044B","OBJECT_NAME":"OPTUS D3","NORAD_CAT_ID":"35756","OBJECT_TYPE":"PAYLOAD","PERIOD":"1436.176","INCLINATION":"0.0399","APOGEE":"35798.971","PERIGEE":"35777.356","ECCENTRICITY":"0.0002563","MEAN_MOTION":"1.00266195","TLE_LINE1":"1 35756U 09044B   16238.69646267  .00000000  00000-0  10000-3 0  9993","TLE_LINE2":"2 35756   0.0399 353.0742 0002563 163.0726 224.9107  1.00266195 25714","LAUNCH_DATE":"2009-08-21","LAUNCH_SITE":"FRENCH GUIANA","OWNER":"AUSTRALIA","ORBIT_TYPE":"Geosynchronous","OPERATIONAL_STATUS":"Operational","satInfo":{"lng":-143.73723598452386,"lat":0.08445629673647832,"elevation":-8.483857940661391,"azimuth":98.73723598452383,"range":42668.91465816477,"height":35823.91744319772,"velocity":3.0729576588643703},"x":-154,"y":207,"dx":-2.477765265625513,"dy":-1.8176215397141733,"maxAlt":256,"minAlt":256},{"OBJECT_ID":"2009-044C","OBJECT_NAME":"ARIANE 5 R/B","NORAD_CAT_ID":"35757","OBJECT_TYPE":"ROCKET BODY","PERIOD":"599.077","INCLINATION":"1.73","APOGEE":"34072.678","PERIGEE":"252.059","ECCENTRICITY":"0.7183495","MEAN_MOTION":"2.40369373","TLE_LINE1":"1 35757U 09044C   16238.07918988 +.00001576 +00000-0 +51747-3 0  9990","TLE_LINE2":"2 35757 001.7300 121.3059 7183495 197.5431 111.8167 02.40369373059947","LAUNCH_DATE":"2009-08-21","LAUNCH_SITE":"FRENCH GUIANA","OWNER":"FRANCE","ORBIT_TYPE":"Highly Elliptical Orbit","OPERATIONAL_STATUS":"N/A, derelict rocket body","satInfo":{"lng":170.94355094428226,"lat":-1.6725405471146417,"elevation":-12.6682934709497,"azimuth":144.05644905571774,"range":33308.659843740366,"height":26133.491594300758,"velocity":2.7165579092293295},"x":28,"y":184,"dx":-2.682692588241534,"dy":0.4276065378246288,"maxAlt":244,"minAlt":0},{"OBJECT_ID":"2009-064A","OBJECT_NAME":"INTELSAT 14","NORAD_CAT_ID":"36097","OBJECT_TYPE":"PAYLOAD","PERIOD":"1436.079","INCLINATION":"0.0145","APOGEE":"35795.616","PERIGEE":"35776.887","ECCENTRICITY":"0.0002221","MEAN_MOTION":"1.00273015","TLE_LINE1":"1 36097U 09064A   16237.20026821 -.00000297 +00000-0 +00000-0 0  9993","TLE_LINE2":"2 36097 000.0145 113.7955 0002221 052.1829 194.0243 01.00273015024796","LAUNCH_DATE":"2009-11-23","LAUNCH_SITE":"AIR FORCE EASTERN TEST RANGE","OWNER":"INTERNATIONAL TELECOMMUNICATIONS SATELLITE ORGANIZATION (INTELSAT)","ORBIT_TYPE":"Geosynchronous","OPERATIONAL_STATUS":"Operational","satInfo":{"lng":-45.085771398471444,"lat":-0.2850815625747493,"elevation":-8.852022944021606,"azimuth":0.08577139847143218,"range":42673.3708034137,"height":35787.47556744399,"velocity":3.074616647400693},"x":-184,"y":-183,"dx":2.170825259470707,"dy":-2.1773344302879645,"maxAlt":256,"minAlt":256},{"OBJECT_ID":"2010-032C","OBJECT_NAME":"ARIANE 5 R/B","NORAD_CAT_ID":"36746","OBJECT_TYPE":"ROCKET BODY","PERIOD":"597.726","INCLINATION":"1.3075","APOGEE":"34008.574","PERIGEE":"245.338","ECCENTRICITY":"0.7182111","MEAN_MOTION":"2.40912781","TLE_LINE1":"1 36746U 10032C   16238.59796432  .00002826  00000-0  75380-3 0  9991","TLE_LINE2":"2 36746   1.3075 205.0308 7182111 281.4705  11.7377  2.40912781 52793","LAUNCH_DATE":"2010-06-26","LAUNCH_SITE":"FRENCH GUIANA","OWNER":"FRANCE","ORBIT_TYPE":"Highly Elliptical Orbit","OPERATIONAL_STATUS":"N/A, derelict rocket body","satInfo":{"lng":-41.81478237450247,"lat":1.2666483304488485,"elevation":-8.092732831806776,"azimuth":356.8147823745025,"range":39086.5709129573,"height":32328.63884101011,"velocity":1.813128868236039},"x":-157,"y":-175,"dx":1.3513322138927986,"dy":-1.2088579488618532,"maxAlt":244,"minAlt":0}]